NORAD_CAT_ID,OBJECT_NAME,OBJECT_TYPE,EPOCH,MEAN_MOTION,ECCENTRICITY,INCLINATION,RA_OF_ASC_NODE,ARG_OF_PERICENTER,MEAN_ANOMALY,BSTAR,MEAN_MOTION_DOT,MEAN_MOTION_DDOT,TLE_LINE0,TLE_LINE1,TLE_LINE2,SEMIMAJOR_AXIS,PERIOD,APOGEE,PERIGEE,DECAYED
55309.0,STARLINK-5315,PAYLOAD,2023-03-11 17:22:05,15.6992511,0.0003088,70.001,284.9733,268.2782,91.806,5.4014e-05,6.287e-05,0.0,0 STARLINK-5315,1 55309U 23010AS  23070.72367139  .00006287  00000-0  54014-4 0  9999,2 55309  70.0010 284.9733 0003088 268.2782  91.8060 15.69925110  8542,6737.248,91.724,361.194,357.033,0.0
55309.0,STARLINK-5315,PAYLOAD,2023-03-11 23:29:05,15.69922945,0.0003492,70.0003,284.2574,265.4937,94.586,6.5534e-06,5.75e-06,0.0,0 STARLINK-5315,1 55309U 23010AS  23070.97853739  .00000575  00000-0  65534-5 0  9996,2 55309  70.0003 284.2574 0003492 265.4937  94.5860 15.69922945  8901,6737.254,91.724,361.472,356.767,0.0
55309.0,STARLINK-5315,PAYLOAD,2023-03-12 23:57:07,15.69931963,0.0003591,70.0005,281.3925,277.2506,82.8282,3.8867e-05,4.465e-05,0.0,0 STARLINK-5315,1 55309U 23010AS  23071.99800425  .00004465  00000-0  38867-4 0  9993,2 55309  70.0005 281.3925 0003591 277.2506  82.8282 15.69931963  8744,6737.229,91.724,361.513,356.674,0.0
55309.0,STARLINK-5315,PAYLOAD,2023-03-13 21:21:39,15.69924821,0.000371,69.9999,278.8828,285.4566,74.6219,1.9931e-05,2.184e-05,0.0,0 STARLINK-5315,1 55309U 23010AS  23072.89004241  .00002184  00000-0  19931-4 0  9992,2 55309  69.9999 278.8828 0003710 285.4566  74.6219 15.69924821  9202,6737.249,91.724,361.614,356.615,0.0
55309.0,STARLINK-5315,PAYLOAD,2023-03-13 22:53:24,15.69927461,0.0003888,69.9999,278.7037,270.4277,89.6473,2.1487e-05,2.372e-05,0.0,0 STARLINK-5315,1 55309U 23010AS  23072.95375505  .00002372  00000-0  21487-4 0  9991,2 55309  69.9999 278.7037 0003888 270.4277  89.6473 15.69927461  8897,6737.242,91.724,361.726,356.487,0.0
55309.0,STARLINK-5315,PAYLOAD,2023-03-14 12:39:10,15.69927489,0.0003754,69.9997,277.0932,271.774,88.3025,1.8408e-05,2.001e-05,0.0,0 STARLINK-5315,1 55309U 23010AS  23073.52720683  .00002001  00000-0  18408-4 0  9994,2 55309  69.9997 277.0932 0003754 271.7740  88.3025 15.69927489  9308,6737.241,91.724,361.636,356.577,0.0
55309.0,STARLINK-5315,PAYLOAD,2023-03-14 20:17:55,15.6994499,0.0003672,69.9997,276.1987,263.7887,96.289,6.0185e-05,7.036e-05,0.0,0 STARLINK-5315,1 55309U 23010AS  23073.84578221  .00007036  00000-0  60185-4 0  9990,2 55309  69.9997 276.1987 0003672 263.7887  96.2890 15.69944990  9359,6737.191,91.723,361.53,356.582,0.0
55309.0,STARLINK-5315,PAYLOAD,2023-03-15 02:24:57,15.69912575,0.0002955,70.0003,275.4781,276.7274,83.3585,-1.5063e-05,-2.022e-05,0.0,0 STARLINK-5315,1 55309U 23010AS  23074.10066270 -.00002022  00000-0 -15063-4 0  9993,2 55309  70.0003 275.4781 0002955 276.7274  83.3585 15.69912575  9072,6737.284,91.725,361.14,357.158,0.0
55309.0,STARLINK-5315,PAYLOAD,2023-03-15 22:17:44,15.69923615,0.0003052,70.0,273.1527,269.3591,90.7255,2.6619e-05,2.989e-05,0.0,0 STARLINK-5315,1 55309U 23010AS  23074.92898668  .00002989  00000-0  26619-4 0  9996,2 55309  70.0000 273.1527 0003052 269.3591  90.7255 15.69923615  9524,6737.253,91.724,361.174,357.061,0.0
55309.0,STARLINK-5315,PAYLOAD,2023-03-16 01:21:13,15.69949007,0.0003809,69.9996,272.7941,269.5317,90.5442,7.361e-05,8.657e-05,0.0,0 STARLINK-5315,1 55309U 23010AS  23075.05640504  .00008657  00000-0  73610-4 0  9996,2 55309  69.9996 272.7941 0003809 269.5317  90.5442 15.69949007  9224,6737.18,91.723,361.611,356.479,0.0
55309.0,STARLINK-5315,PAYLOAD,2023-03-16 12:03:29,15.69942817,0.0003413,69.9999,271.5391,263.5888,96.4919,5.4638e-05,6.367e-05,0.0,0 STARLINK-5315,1 55309U 23010AS  23075.50242285  .00006367  00000-0  54638-4 0  9995,2 55309  69.9999 271.5391 0003413 263.5888  96.4919 15.69942817  9294,6737.198,91.723,361.362,356.763,0.0
55309.0,STARLINK-5315,PAYLOAD,2023-03-16 21:14:00,15.69937372,0.0004268,69.9986,270.4658,260.8891,99.1821,2.3208e-05,2.58e-05,0.0,0 STARLINK-5315,1 55309U 23010AS  23075.88472251  .00002580  00000-0  23208-4 0  9996,2 55309  69.9986 270.4658 0004268 260.8891  99.1821 15.69937372  9671,6737.213,91.723,361.954,356.203,0.0
55309.0,STARLINK-5315,PAYLOAD,2023-03-17 00:17:31,15.69921455,0.0003541,69.9988,270.1063,266.7212,93.3579,-2.1633e-06,-4.73e-06,0.0,0 STARLINK-5315,1 55309U 23010AS  23076.01216599 -.00000473  00000-0 -21633-5 0  9995,2 55309  69.9988 270.1063 0003541 266.7212  93.3579 15.69921455  9373,6737.259,91.724,361.509,356.738,0.0
55309.0,STARLINK-5315,PAYLOAD,2023-03-17 06:24:32,15.6991528,0.0003309,69.9997,269.3895,271.9049,88.1768,-1.2938e-06,-3.68e-06,0.0,0 STARLINK-5315,1 55309U 23010AS  23076.26703807 -.00000368  00000-0 -12938-5 0  9996,2 55309  69.9997 269.3895 0003309 271.9049  88.1768 15.69915280  9735,6737.276,91.725,361.371,356.912,0.0
55309.0,STARLINK-5315,PAYLOAD,2023-03-17 17:06:47,15.6994284,0.0002865,69.9977,268.1359,277.4917,82.5953,3.7053e-05,4.248e-05,0.0,0 STARLINK-5315,1 55309U 23010AS  23076.71304452  .00004248  00000-0  37053-4 0  9992,2 55309  69.9977 268.1359 0002865 277.4917  82.5953 15.69942840  9484,6737.198,91.723,360.993,357.132,0.0
55309.0,STARLINK-5315,PAYLOAD,2023-03-18 12:59:34,15.69919538,0.0003692,70.0012,265.8098,282.8264,77.2519,-2.1122e-05,-2.751e-05,0.0,0 STARLINK-5315,1 55309U 23010AS  23077.54136668 -.00002751  00000-0 -21122-4 0  9995,2 55309  70.0012 265.8098 0003692 282.8264  77.2519 15.69919538  9617,6737.264,91.724,361.617,356.642,0.0
55309.0,STARLINK-5315,PAYLOAD,2023-03-18 20:38:18,15.69942737,0.0003575,69.9998,264.9122,270.685,89.3936,2.7576e-05,3.107e-05,0.0,0 STARLINK-5315,1 55309U 23010AS  23077.85993635  .00003107  00000-0  27576-4 0  9997,2 55309  69.9998 264.9122 0003575 270.6850  89.3936 15.69942737  9660,6737.198,91.723,361.471,356.654,0.0
55309.0,STARLINK-5315,PAYLOAD,2023-03-18 22:10:03,15.69940761,0.0003602,69.9998,264.7332,270.8188,89.2595,2.4048e-05,2.682e-05,0.0,0 STARLINK-5315,1 55309U 23010AS  23077.92365365  .00002682  00000-0  24048-4 0  9996,2 55309  69.9998 264.7332 0003602 270.8188  89.2595 15.69940761  9999,6737.203,91.723,361.495,356.642,0.0
55309.0,STARLINK-5315,PAYLOAD,2023-03-18 23:41:49,15.69933697,0.0003581,69.9999,264.5541,272.1318,87.9468,3.362e-05,3.833e-05,0.0,0 STARLINK-5315,1 55309U 23010AS  23077.98737407  .00003833  00000-0  33620-4 0  9997,2 55309  69.9999 264.5541 0003581 272.1318  87.9468 15.69933697  9686,6737.224,91.724,361.501,356.676,0.0
55309.0,STARLINK-5315,PAYLOAD,2023-03-19 05:48:50,15.69914665,0.0003205,70.0003,263.8368,279.1706,80.9127,1.264e-05,1.307e-05,0.0,0 STARLINK-5315,1 55309U 23010AS  23078.24225236  .00001307  00000-0  12640-4 0  9992,2 55309  70.0003 263.8368 0003205 279.1706  80.9127 15.69914665  9729,6737.278,91.725,361.302,356.984,0.0
55309.0,STARLINK-5315,PAYLOAD,2023-03-19 13:27:35,15.69930846,0.0003478,69.9997,262.9408,276.2088,83.8711,-2.4354e-06,-5.06e-06,0.0,0 STARLINK-5315,1 55309U 23010AS  23078.56082641 -.00000506  00000-0 -24354-5 0  9996,2 55309  69.9997 262.9408 0003478 276.2088  83.8711 15.69930846 10098,6737.232,91.724,361.44,356.754,0.0
55309.0,STARLINK-5315,PAYLOAD,2023-03-19 19:34:35,15.699452,0.0003773,70.0002,262.2258,277.9241,82.1526,-1.8507e-05,-2.44e-05,0.0,0 STARLINK-5315,1 55309U 23010AS  23078.81568455 -.00002440  00000-0 -18507-4 0  9997,2 55309  70.0002 262.2258 0003773 277.9241  82.1526 15.69945200  9815,6737.191,91.723,361.598,356.514,0.0
55309.0,STARLINK-5315,PAYLOAD,2023-03-19 21:06:20,15.69935427,0.0004092,70.0,262.0457,288.0082,72.0668,-1.6241e-05,-2.167e-05,0.0,0 STARLINK-5315,1 55309U 23010AS  23078.87940700 -.00002167  00000-0 -16241-4 0  9999,2 55309  70.0000 262.0457 0004092 288.0082  72.0668 15.69935427 10146,6737.219,91.724,361.841,356.327,0.0
55309.0,STARLINK-5315,PAYLOAD,2023-03-20 00:09:52,15.6989108,0.0004184,70.0,261.687,273.8419,86.2298,-8.3609e-05,-0.00010242,0.0,0 STARLINK-5315,1 55309U 23010AS  23079.00686018 -.00010242  00000-0 -83609-4 0  9999,2 55309  70.0000 261.6870 0004184 273.8419  86.2298 15.69891080  9845,6737.346,91.726,362.03,356.392,0.0
55309.0,STARLINK-5315,PAYLOAD,2023-03-20 12:23:53,15.69910677,0.0003494,70.0002,260.2557,297.1924,62.8915,1.4195e-05,1.493e-05,0.0,0 STARLINK-5315,1 55309U 23010AS  23079.51659585  .00001493  00000-0  14195-4 0  9994,2 55309  70.0002 260.2557 0003494 297.1924  62.8915 15.69910677  9926,6737.29,91.725,361.509,356.801,0.0
55309.0,STARLINK-5315,PAYLOAD,2023-03-20 13:55:38,15.69909904,0.0003645,70.0003,260.0751,290.2218,69.8585,-7.0091e-06,-1.055e-05,0.0,0 STARLINK-5315,1 55309U 23010AS  23079.58031046 -.00001055  00000-0 -70091-5 0  9991,2 55309  70.0003 260.0751 0003645 290.2218  69.8585 15.69909904 10258,6737.292,91.725,361.613,356.701,0.0
55309.0,STARLINK-5315,PAYLOAD,2023-03-20 18:30:53,15.69943161,0.0003909,70.0002,259.5379,281.8357,78.24,8.3795e-05,9.883e-05,0.0,0 STARLINK-5315,1 55309U 23010AS  23079.77144841  .00009883  00000-0  83795-4 0  9999,2 55309  70.0002 259.5379 0003909 281.8357  78.2400 15.69943161  9968,6737.197,91.723,361.695,356.428,0.0
55309.0,STARLINK-5315,PAYLOAD,2023-03-21 05:13:09,15.69931147,0.0002989,70.003,258.2853,284.9277,75.1587,3.9008e-05,4.481e-05,0.0,0 STARLINK-5315,1 55309U 23010AS  23080.21746935  .00004481  00000-0  39008-4 0  9999,2 55309  70.0030 258.2853 0002989 284.9277  75.1587 15.69931147 10037,6737.231,91.724,361.11,357.082,0.0
55309.0,STARLINK-5315,PAYLOAD,2023-03-21 12:51:55,15.69923152,0.0003501,70.0011,257.389,281.9621,78.1182,1.3531e-05,1.414e-05,0.0,0 STARLINK-5315,1 55309U 23010AS  23080.53605455  .00001414  00000-0  13531-4 0  9991,2 55309  70.0011 257.3890 0003501 281.9621  78.1182 15.69923152 10400,6737.254,91.724,361.478,356.76,0.0
55309.0,STARLINK-5315,PAYLOAD,2023-03-21 20:30:40,15.69923755,0.0003231,70.0027,256.494,281.99,78.0933,1.1206e-05,1.135e-05,0.0,0 STARLINK-5315,1 55309U 23010AS  23080.85463805  .00001135  00000-0  11206-4 0  9994,2 55309  70.0027 256.4940 0003231 281.9900  78.0933 15.69923755 10450,6737.252,91.724,361.294,356.94,0.0
